{"type": "FeatureCollection", "features": [ {"type": "Feature", "properties": {"norad_id": 67153, "name": "KUIPER-00248", "group": "last-30-days", "lat": -41.95325231314034, "lon": -82.76597301137352, "alt_km": 466.0499638415313, "timestamp": "2025-12-27T20:30:58.026553+00:00", "meta": {"OBJECT_NAME": "KUIPER-00248", "OBJECT_ID": "2025-301W", "EPOCH": "2025-12-27T08:32:38.185728", "MEAN_MOTION": 15.34737465, "ECCENTRICITY": 0.0008855, "INCLINATION": 51.8684, "RA_OF_ASC_NODE": 54.7154, "ARG_OF_PERICENTER": 145.1899, "MEAN_ANOMALY": 214.9667, "EPHEMERIS_TYPE": 0, "CLASSIFICATION_TYPE": "U", "NORAD_CAT_ID": 67153, "ELEMENT_SET_NO": 999, "REV_AT_EPOCH": 278, "BSTAR": 0.00094522, "MEAN_MOTION_DOT": 0.00032104, "MEAN_MOTION_DDOT": 0}, "tle": {"line1": "1 67153U 25301W   25361.35599752  .00032104  00000+0  94522-3 0  9999", "line2": "2 67153  51.8684  54.7154 0008855 145.1899 214.9667 15.34737465  2782"}}, "geometry": {"type": "Point", "coordinates": [-82.76597301137352, -41.95325231314034]}}, {"type": "Feature", "properties": {"norad_id": 67154, "name": "KUIPER-00249", "group": "last-30-days", "lat": -46.10051085295734, "lon": -72.98049935336095, "alt_km": 466.93705779280754, "timestamp": "2025-12-27T20:30:58.026563+00:00", "meta": {"OBJECT_NAME": "KUIPER-00249", "OBJECT_ID": "2025-301X", "EPOCH": "2025-12-27T10:04:18.960960", "MEAN_MOTION": 15.34859068, "ECCENTRICITY": 0.0008142, "INCLINATION": 51.8659, "RA_OF_ASC_NODE": 54.3919, "ARG_OF_PERICENTER": 142.5229, "MEAN_ANOMALY": 217.6325, "EPHEMERIS_TYPE": 0, "CLASSIFICATION_TYPE": "U", "NORAD_CAT_ID": 67154, "ELEMENT_SET_NO": 999, "REV_AT_EPOCH": 262, "BSTAR": 0.00070614, "MEAN_MOTION_DOT": 0.0002395, "MEAN_MOTION_DDOT": 0}, "tle": {"line1": "1 67154U 25301X   25361.41966390  .00023950  00000+0  70614-3 0  9998", "line2": "2 67154  51.8659  54.3919 0008142 142.5229 217.6325 15.34859068  2625"}}, "geometry": {"type": "Point", "coordinates": [-72.98049935336095, -46.10051085295734]}}, {"type": "Feature", "properties": {"norad_id": 67155, "name": "KUIPER-00250", "group": "last-30-days", "lat": -51.73611802303679, "lon": -42.97713034088507, "alt_km": 467.18804372261, "timestamp": "2025-12-27T20:30:58.026573+00:00", "meta": {"OBJECT_NAME": "KUIPER-00250", "OBJECT_ID": "2025-301Y", "EPOCH": "2025-12-27T09:59:13.111008", "MEAN_MOTION": 15.35411044, "ECCENTRICITY": 0.0006212, "INCLINATION": 51.8719, "RA_OF_ASC_NODE": 54.3679, "ARG_OF_PERICENTER": 131.7489, "MEAN_ANOMALY": 228.4029, "EPHEMERIS_TYPE": 0, "CLASSIFICATION_TYPE": "U", "NORAD_CAT_ID": 67155, "ELEMENT_SET_NO": 999, "REV_AT_EPOCH": 265, "BSTAR": 0.00088928, "MEAN_MOTION_DOT": 0.0003082, "MEAN_MOTION_DDOT": 0}, "tle": {"line1": "1 67155U 25301Y   25361.41612397  .00030820  00000+0  88928-3 0  9995", "line2": "2 67155  51.8719  54.3679 0006212 131.7489 228.4029 15.35411044  2653"}}, "geometry": {"type": "Point", "coordinates": [-42.97713034088507, -51.73611802303679]}}, {"type": "Feature", "properties": {"norad_id": 67156, "name": "KUIPER-00251", "group": "last-30-days", "lat": -43.96413572291488, "lon": -78.43616901699185, "alt_km": 466.78085858647955, "timestamp": "2025-12-27T20:30:58.026584+00:00", "meta": {"OBJECT_NAME": "KUIPER-00251", "OBJECT_ID": "2025-301Z", "EPOCH": "2025-12-27T10:05:27.520224", "MEAN_MOTION": 15.34829238, "ECCENTRICITY": 0.0008775, "INCLINATION": 51.8671, "RA_OF_ASC_NODE": 54.3974, "ARG_OF_PERICENTER": 140.6365, "MEAN_ANOMALY": 219.5259, "EPHEMERIS_TYPE": 0, "CLASSIFICATION_TYPE": "U", "NORAD_CAT_ID": 67156, "ELEMENT_SET_NO": 999, "REV_AT_EPOCH": 281, "BSTAR": 0.00069811, "MEAN_MOTION_DOT": 0.00023653, "MEAN_MOTION_DDOT": 0}, "tle": {"line1": "1 67156U 25301Z   25361.42045741  .00023653  00000+0  69811-3 0  9996", "line2": "2 67156  51.8671  54.3974 0008775 140.6365 219.5259 15.34829238  2818"}}, "geometry": {"type": "Point", "coordinates": [-78.43616901699185, -43.96413572291488]}}, {"type": "Feature", "properties": {"norad_id": 67157, "name": "KUIPER-00252", "group": "last-30-days", "lat": -32.987968194865445, "lon": -96.99900904285352, "alt_km": 464.49708171936436, "timestamp": "2025-12-27T20:30:58.026596+00:00", "meta": {"OBJECT_NAME": "KUIPER-00252", "OBJECT_ID": "2025-301AA", "EPOCH": "2025-12-27T10:09:59.902272", "MEAN_MOTION": 15.34337258, "ECCENTRICITY": 0.0009853, "INCLINATION": 51.8665, "RA_OF_ASC_NODE": 54.418, "ARG_OF_PERICENTER": 151.0414, "MEAN_ANOMALY": 209.112, "EPHEMERIS_TYPE": 0, "CLASSIFICATION_TYPE": "U", "NORAD_CAT_ID": 67157, "ELEMENT_SET_NO": 999, "REV_AT_EPOCH": 262, "BSTAR": 0.0010544, "MEAN_MOTION_DOT": 0.00035425, "MEAN_MOTION_DDOT": 0}, "tle": {"line1": "1 67157U 25301AA  25361.42360998  .00035425  00000+0  10544-2 0  9999", "line2": "2 67157  51.8665  54.4180 0009853 151.0414 209.1120 15.34337258  2628"}}, "geometry": {"type": "Point", "coordinates": [-96.99900904285352, -32.987968194865445]}}, {"type": "Feature", "properties": {"norad_id": 67158, "name": "KUIPER-00261", "group": "last-30-days", "lat": -51.75827708368742, "lon": -33.10013102051382, "alt_km": 467.1650170079465, "timestamp": "2025-12-27T20:30:58.026606+00:00", "meta": {"OBJECT_NAME": "KUIPER-00261", "OBJECT_ID": "2025-301AB", "EPOCH": "2025-12-27T09:57:38.694816", "MEAN_MOTION": 15.35475942, "ECCENTRICITY": 0.00057, "INCLINATION": 51.8701, "RA_OF_ASC_NODE": 54.3622, "ARG_OF_PERICENTER": 129.294, "MEAN_ANOMALY": 230.8552, "EPHEMERIS_TYPE": 0, "CLASSIFICATION_TYPE": "U", "NORAD_CAT_ID": 67158, "ELEMENT_SET_NO": 999, "REV_AT_EPOCH": 262, "BSTAR": 0.0007045, "MEAN_MOTION_DOT": 0.00024364, "MEAN_MOTION_DDOT": 0}, "tle": {"line1": "1 67158U 25301AB  25361.41503119  .00024364  00000+0  70450-3 0  9996", "line2": "2 67158  51.8701  54.3622 0005700 129.2940 230.8552 15.35475942  2622"}}, "geometry": {"type": "Point", "coordinates": [-33.10013102051382, -51.75827708368742]}}, {"type": "Feature", "properties": {"norad_id": 67159, "name": "KUIPER-00265", "group": "last-30-days", "lat": -34.85439986166212, "lon": 18.9965206010537, "alt_km": 461.4755781612039, "timestamp": "2025-12-27T20:30:58.026616+00:00", "meta": {"OBJECT_NAME": "KUIPER-00265", "OBJECT_ID": "2025-301AC", "EPOCH": "2025-12-27T11:21:08.451072", "MEAN_MOTION": 15.36477739, "ECCENTRICITY": 0.0001944, "INCLINATION": 51.8744, "RA_OF_ASC_NODE": 53.9996, "ARG_OF_PERICENTER": 92.9101, "MEAN_ANOMALY": 267.2108, "EPHEMERIS_TYPE": 0, "CLASSIFICATION_TYPE": "U", "NORAD_CAT_ID": 67159, "ELEMENT_SET_NO": 999, "REV_AT_EPOCH": 266, "BSTAR": 0.00089632, "MEAN_MOTION_DOT": 0.00032149, "MEAN_MOTION_DDOT": 0}, "tle": {"line1": "1 67159U 25301AC  25361.47301448  .00032149  00000+0  89632-3 0  9996", "line2": "2 67159  51.8744  53.9996 0001944  92.9101 267.2108 15.36477739  2662"}}, "geometry": {"type": "Point", "coordinates": [18.9965206010537, -34.85439986166212]}}, {"type": "Feature", "properties": {"norad_id": 67160, "name": "GALILEO A", "group": "last-30-days", "lat": -52.116164016516784, "lon": 39.32332201775722, "alt_km": 22932.38000980837, "timestamp": "2025-12-27T20:30:58.026628+00:00", "meta": {"OBJECT_NAME": "GALILEO A", "OBJECT_ID": "2025-302A", "EPOCH": "2025-12-18T03:30:19.486368", "MEAN_MOTION": 1.72906186, "ECCENTRICITY": 0.00084238, "INCLINATION": 54.2406, "RA_OF_ASC_NODE": 107.2544, "ARG_OF_PERICENTER": 237.6458, "MEAN_ANOMALY": 122.2317, "EPHEMERIS_TYPE": 0, "CLASSIFICATION_TYPE": "U", "NORAD_CAT_ID": 67160, "ELEMENT_SET_NO": 999, "REV_AT_EPOCH": 2, "BSTAR": 0, "MEAN_MOTION_DOT": -7e-08, "MEAN_MOTION_DDOT": 0}, "tle": {"line1": "1 67160U 25302A   25352.14605887 -.00000007  00000+0  00000+0 0  9994", "line2": "2 67160  54.2406 107.2544 0008423 237.6458 122.2317  1.72906186    28"}}, "geometry": {"type": "Point", "coordinates": [39.32332201775722, -52.116164016516784]}}, {"type": "Feature", "properties": {"norad_id": 67161, "name": "GALILEO B", "group": "last-30-days", "lat": -51.278896161000326, "lon": 43.04351069202524, "alt_km": 22929.927021717078, "timestamp": "2025-12-27T20:30:58.026645+00:00", "meta": {"OBJECT_NAME": "GALILEO B", "OBJECT_ID": "2025-302B", "EPOCH": "2025-12-26T19:37:10.068960", "MEAN_MOTION": 1.72972318, "ECCENTRICITY": 0.00047769, "INCLINATION": 54.2304, "RA_OF_ASC_NODE": 106.9693, "ARG_OF_PERICENTER": 256.4913, "MEAN_ANOMALY": 103.4489, "EPHEMERIS_TYPE": 0, "CLASSIFICATION_TYPE": "U", "NORAD_CAT_ID": 67161, "ELEMENT_SET_NO": 999, "REV_AT_EPOCH": 18, "BSTAR": 0, "MEAN_MOTION_DOT": 1.6e-07, "MEAN_MOTION_DDOT": 0}, "tle": {"line1": "1 67161U 25302B   25360.81747765  .00000016  00000+0  00000+0 0  9999", "line2": "2 67161  54.2304 106.9693 0004776 256.4913 103.4489  1.72972318   187"}}, "geometry": {"type": "Point", "coordinates": [43.04351069202524, -51.278896161000326]}}, {"type": "Feature", "properties": {"norad_id": 67162, "name": "ARIANE 6 R/B", "group": "last-30-days", "lat": -48.86763633799345, "lon": 51.49853664485025, "alt_km": 22924.58143462142, "timestamp": "2025-12-27T20:30:58.026656+00:00", "meta": {"OBJECT_NAME": "ARIANE 6 R/B", "OBJECT_ID": "2025-302C", "EPOCH": "2025-12-19T07:12:31.071168", "MEAN_MOTION": 1.73130298, "ECCENTRICITY": 2.559e-05, "INCLINATION": 54.2437, "RA_OF_ASC_NODE": 107.222, "ARG_OF_PERICENTER": 160.7324, "MEAN_ANOMALY": 199.2296, "EPHEMERIS_TYPE": 0, "CLASSIFICATION_TYPE": "U", "NORAD_CAT_ID": 67162, "ELEMENT_SET_NO": 999, "REV_AT_EPOCH": 8, "BSTAR": 0, "MEAN_MOTION_DOT": -5e-08, "MEAN_MOTION_DDOT": 0}, "tle": {"line1": "1 67162U 25302C   25353.30035962 -.00000005  00000+0  00000+0 0  9994", "line2": "2 67162  54.2437 107.2220 0000255 160.7324 199.2296  1.73130298    88"}}, "geometry": {"type": "Point", "coordinates": [51.49853664485025, -48.86763633799345]}}]}